start=new Date('2022-05-25T00:00:00.000Z').valueOf();
sats=[{"SITE":"AFETR","COUNTRY_CODE":"US","CENTER_NAME":"EARTH","MEAN_ANOMALY":"311.3316","SEMIMAJOR_AXIS":"6925.351","BSTAR":"-0.00004899200000","TIME_SYSTEM":"UTC","ECCENTRICITY":"0.00020250","MEAN_MOTION_DDOT":"0.0000000000000","REV_AT_EPOCH":"9582","EPHEMERIS_TYPE":"0","OBJECT_ID":"2020-062F","EPOCH":"2022-05-24T13:12:13.035168","PERIAPSIS":"545.813","FILE":"3462307","ARG_OF_PERICENTER":"48.7847","MEAN_MOTION_DOT":"-0.00001011","REF_FRAME":"TEME","TLE_LINE2":"2 46330  53.0539  94.7397 0002025  48.7847 311.3316 15.06399317 95825","LAUNCH_DATE":"2020-09-03","OBJECT_TYPE":"PAYLOAD","TLE_LINE1":"1 46330U 20062F   22144.55015087 -.00001011  00000-0 -48992-4 0  9991","MEAN_MOTION":"15.06399317","RA_OF_ASC_NODE":"94.7397","GP_ID":"204423443","CLASSIFICATION_TYPE":"U","NORAD_CAT_ID":"46330","APOAPSIS":"548.618","OBJECT_NAME":"STARLINK-1710","ELEMENT_SET_NO":"999","RCS_SIZE":"LARGE","PERIOD":"95.592","MEAN_ELEMENT_THEORY":"SGP4","INCLINATION":"53.0539","DECAY_DATE":null},{"RCS_SIZE":"LARGE","MEAN_ELEMENT_THEORY":"SGP4","PERIOD":"95.592","DECAY_DATE":null,"INCLINATION":"53.0535","OBJECT_NAME":"STARLINK-1719","ELEMENT_SET_NO":"999","NORAD_CAT_ID":"46331","APOAPSIS":"548.289","CLASSIFICATION_TYPE":"U","TLE_LINE1":"1 46331U 20062G   22144.65152329 -.00001699  00000-0 -95212-4 0  9993","MEAN_MOTION":"15.06394338","RA_OF_ASC_NODE":"114.2931","GP_ID":"204452580","TLE_LINE2":"2 46331  53.0535 114.2931 0001528  68.9699 291.1453 15.06394338 95555","OBJECT_TYPE":"PAYLOAD","LAUNCH_DATE":"2020-09-03","REF_FRAME":"TEME","FILE":"3462783","MEAN_MOTION_DOT":"-0.00001699","ARG_OF_PERICENTER":"68.9699","EPHEMERIS_TYPE":"0","EPOCH":"2022-05-24T15:38:11.612256","OBJECT_ID":"2020-062G","PERIAPSIS":"546.173","ECCENTRICITY":"0.00015280","MEAN_MOTION_DDOT":"0.0000000000000","REV_AT_EPOCH":"9555","BSTAR":"-0.00009521200000","TIME_SYSTEM":"UTC","CENTER_NAME":"EARTH","MEAN_ANOMALY":"291.1453","SEMIMAJOR_AXIS":"6925.366","SITE":"AFETR","COUNTRY_CODE":"US"},{"REV_AT_EPOCH":"9550","MEAN_MOTION_DDOT":"0.0000000000000","ECCENTRICITY":"0.00020250","PERIAPSIS":"545.830","EPOCH":"2022-05-24T07:56:24.993312","OBJECT_ID":"2020-062H","EPHEMERIS_TYPE":"0","MEAN_MOTION_DOT":"-0.00000768","ARG_OF_PERICENTER":"48.8372","FILE":"3462176","REF_FRAME":"TEME","COUNTRY_CODE":"US","SITE":"AFETR","SEMIMAJOR_AXIS":"6925.368","MEAN_ANOMALY":"311.2791","CENTER_NAME":"EARTH","TIME_SYSTEM":"UTC","BSTAR":"-0.00003265600000","CLASSIFICATION_TYPE":"U","APOAPSIS":"548.635","NORAD_CAT_ID":"46332","ELEMENT_SET_NO":"999","OBJECT_NAME":"STARLINK-1721","DECAY_DATE":null,"INCLINATION":"53.0564","PERIOD":"95.593","MEAN_ELEMENT_THEORY":"SGP4","RCS_SIZE":"LARGE","OBJECT_TYPE":"PAYLOAD","LAUNCH_DATE":"2020-09-03","TLE_LINE2":"2 46332  53.0564 115.7462 0002025  48.8372 311.2791 15.06393742 95503","GP_ID":"204414469","RA_OF_ASC_NODE":"115.7462","MEAN_MOTION":"15.06393742","TLE_LINE1":"1 46332U 20062H   22144.33084483 -.00000768  00000-0 -32656-4 0  9993"},{"FILE":"3462783","ARG_OF_PERICENTER":"51.0332","MEAN_MOTION_DOT":"0.00001409","REF_FRAME":"TEME","MEAN_MOTION_DDOT":"0.0000000000000","ECCENTRICITY":"0.00020550","REV_AT_EPOCH":"9554","OBJECT_ID":"2020-062J","EPOCH":"2022-05-24T14:39:47.431296","EPHEMERIS_TYPE":"0","PERIAPSIS":"545.802","MEAN_ANOMALY":"309.0840","CENTER_NAME":"EARTH","SEMIMAJOR_AXIS":"6925.360","BSTAR":"0.00011349000000","TIME_SYSTEM":"UTC","SITE":"AFETR","COUNTRY_CODE":"US","OBJECT_NAME":"STARLINK-1723","ELEMENT_SET_NO":"999","PERIOD":"95.592","MEAN_ELEMENT_THEORY":"SGP4","RCS_SIZE":"LARGE","DECAY_DATE":null,"INCLINATION":"53.0546","CLASSIFICATION_TYPE":"U","NORAD_CAT_ID":"46333","APOAPSIS":"548.648","TLE_LINE1":"1 46333U 20062J   22144.61096564  .00001409  00000-0  11349-3 0  9994","MEAN_MOTION":"15.06396165","GP_ID":"204453576","RA_OF_ASC_NODE":"114.4884","TLE_LINE2":"2 46333  53.0546 114.4884 0002055  51.0332 309.0840 15.06396165 95549","LAUNCH_DATE":"2020-09-03","OBJECT_TYPE":"PAYLOAD"},{"MEAN_MOTION_DOT":"-0.00195563","ARG_OF_PERICENTER":"43.1390","FILE":"3462783","REF_FRAME":"TEME","REV_AT_EPOCH":"9582","MEAN_MOTION_DDOT":"0.0000000000000","ECCENTRICITY":"0.00020750","PERIAPSIS":"551.350","OBJECT_ID":"2020-062K","EPOCH":"2022-05-24T14:07:04.087200","EPHEMERIS_TYPE":"0","SEMIMAJOR_AXIS":"6930.923","MEAN_ANOMALY":"316.9760","CENTER_NAME":"EARTH","TIME_SYSTEM":"UTC","BSTAR":"-0.01415100000000","COUNTRY_CODE":"US","SITE":"AFETR","ELEMENT_SET_NO":"999","OBJECT_NAME":"STARLINK-1725","DECAY_DATE":null,"INCLINATION":"53.0551","MEAN_ELEMENT_THEORY":"SGP4","PERIOD":"95.708","RCS_SIZE":"LARGE","CLASSIFICATION_TYPE":"U","APOAPSIS":"554.226","NORAD_CAT_ID":"46334","GP_ID":"204451831","RA_OF_ASC_NODE":"94.5949","MEAN_MOTION":"15.04583097","TLE_LINE1":"1 46334U 20062K   22144.58824175 -.00195563  00000-0 -14151-1 0  9997","LAUNCH_DATE":"2020-09-03","OBJECT_TYPE":"PAYLOAD","TLE_LINE2":"2 46334  53.0551  94.5949 0002075  43.1390 316.9760 15.04583097 95823"},{"FILE":"3462783","ARG_OF_PERICENTER":"46.6098","MEAN_MOTION_DOT":"0.00000172","REF_FRAME":"TEME","MEAN_MOTION_DDOT":"0.0000000000000","ECCENTRICITY":"0.00021320","REV_AT_EPOCH":"9555","OBJECT_ID":"2020-062L","EPOCH":"2022-05-24T15:22:16.004928","EPHEMERIS_TYPE":"0","PERIAPSIS":"545.762","MEAN_ANOMALY":"313.5068","CENTER_NAME":"EARTH","SEMIMAJOR_AXIS":"6925.374","BSTAR":"0.00003048500000","TIME_SYSTEM":"UTC","SITE":"AFETR","COUNTRY_CODE":"US","OBJECT_NAME":"STARLINK-1727","ELEMENT_SET_NO":"999","MEAN_ELEMENT_THEORY":"SGP4","PERIOD":"95.593","RCS_SIZE":"LARGE","INCLINATION":"53.0571","DECAY_DATE":null,"CLASSIFICATION_TYPE":"U","NORAD_CAT_ID":"46335","APOAPSIS":"548.715","TLE_LINE1":"1 46335U 20062L   22144.64046302  .00000172  00000-0  30485-4 0  9993","MEAN_MOTION":"15.06391749","GP_ID":"204452081","RA_OF_ASC_NODE":"114.3580","TLE_LINE2":"2 46335  53.0571 114.3580 0002132  46.6098 313.5068 15.06391749 95552","LAUNCH_DATE":"2020-09-03","OBJECT_TYPE":"PAYLOAD"},{"ARG_OF_PERICENTER":"44.1912","MEAN_MOTION_DOT":"-0.00000450","FILE":"3462337","REF_FRAME":"TEME","REV_AT_EPOCH":"9600","MEAN_MOTION_DDOT":"0.0000000000000","ECCENTRICITY":"0.00020300","PERIAPSIS":"545.852","OBJECT_ID":"2020-062M","EPOCH":"2022-05-24T13:33:27.584640","EPHEMERIS_TYPE":"0","SEMIMAJOR_AXIS":"6925.392","MEAN_ANOMALY":"315.9239","CENTER_NAME":"EARTH","TIME_SYSTEM":"UTC","BSTAR":"-0.00001129600000","COUNTRY_CODE":"US","SITE":"AFETR","ELEMENT_SET_NO":"999","OBJECT_NAME":"STARLINK-1738","DECAY_DATE":null,"INCLINATION":"53.0542","MEAN_ELEMENT_THEORY":"SGP4","PERIOD":"95.593","RCS_SIZE":"LARGE","CLASSIFICATION_TYPE":"U","APOAPSIS":"548.663","NORAD_CAT_ID":"46336","GP_ID":"204424295","RA_OF_ASC_NODE":"94.6862","TLE_LINE1":"1 46336U 20062M   22144.56490260 -.00000450  00000-0 -11296-4 0  9991","MEAN_MOTION":"15.06385680","LAUNCH_DATE":"2020-09-03","OBJECT_TYPE":"PAYLOAD","TLE_LINE2":"2 46336  53.0542  94.6862 0002030  44.1912 315.9239 15.06385680 96003"},{"TLE_LINE2":"2 46337  53.0570  94.6232 0001970  45.5373 314.5777 15.06385454 96005","LAUNCH_DATE":"2020-09-03","OBJECT_TYPE":"PAYLOAD","MEAN_MOTION":"15.06385454","TLE_LINE1":"1 46337U 20062N   22144.57965083  .00001217  00000-0  10066-3 0  9996","GP_ID":"204424296","RA_OF_ASC_NODE":"94.6232","NORAD_CAT_ID":"46337","APOAPSIS":"548.622","CLASSIFICATION_TYPE":"U","MEAN_ELEMENT_THEORY":"SGP4","PERIOD":"95.593","RCS_SIZE":"LARGE","DECAY_DATE":null,"INCLINATION":"53.0570","OBJECT_NAME":"STARLINK-1750","ELEMENT_SET_NO":"999","SITE":"AFETR","COUNTRY_CODE":"US","BSTAR":"0.00010066000000","TIME_SYSTEM":"UTC","MEAN_ANOMALY":"314.5777","CENTER_NAME":"EARTH","SEMIMAJOR_AXIS":"6925.393","OBJECT_ID":"2020-062N","EPOCH":"2022-05-24T13:54:41.831712","EPHEMERIS_TYPE":"0","PERIAPSIS":"545.894","MEAN_MOTION_DDOT":"0.0000000000000","ECCENTRICITY":"0.00019700","REV_AT_EPOCH":"9600","REF_FRAME":"TEME","FILE":"3462337","ARG_OF_PERICENTER":"45.5373","MEAN_MOTION_DOT":"0.00001217"},{"APOAPSIS":"548.555","NORAD_CAT_ID":"46338","CLASSIFICATION_TYPE":"U","DECAY_DATE":null,"INCLINATION":"53.0562","PERIOD":"95.592","MEAN_ELEMENT_THEORY":"SGP4","RCS_SIZE":"LARGE","ELEMENT_SET_NO":"999","OBJECT_NAME":"STARLINK-1752","LAUNCH_DATE":"2020-09-03","OBJECT_TYPE":"PAYLOAD","TLE_LINE2":"2 46338  53.0562 114.3977 0001916  48.3431 311.7722 15.06395224 95542","GP_ID":"204452331","RA_OF_ASC_NODE":"114.3977","MEAN_MOTION":"15.06395224","TLE_LINE1":"1 46338U 20062P   22144.62940116  .00000516  00000-0  53572-4 0  9994","PERIAPSIS":"545.901","EPOCH":"2022-05-24T15:06:20.260224","OBJECT_ID":"2020-062P","EPHEMERIS_TYPE":"0","REV_AT_EPOCH":"9554","MEAN_MOTION_DDOT":"0.0000000000000","ECCENTRICITY":"0.00019160","REF_FRAME":"TEME","MEAN_MOTION_DOT":"0.00000516","ARG_OF_PERICENTER":"48.3431","FILE":"3462783","COUNTRY_CODE":"US","SITE":"AFETR","TIME_SYSTEM":"UTC","BSTAR":"0.00005357200000","SEMIMAJOR_AXIS":"6925.363","MEAN_ANOMALY":"311.7722","CENTER_NAME":"EARTH"},{"APOAPSIS":"548.718","NORAD_CAT_ID":"46340","CLASSIFICATION_TYPE":"U","INCLINATION":"53.0560","DECAY_DATE":null,"PERIOD":"95.592","MEAN_ELEMENT_THEORY":"SGP4","RCS_SIZE":"LARGE","ELEMENT_SET_NO":"999","OBJECT_NAME":"STARLINK-1759","OBJECT_TYPE":"PAYLOAD","LAUNCH_DATE":"2020-09-03","TLE_LINE2":"2 46340  53.0560 115.7091 0002166  50.4075 309.7105 15.06398644 95508","GP_ID":"204416212","RA_OF_ASC_NODE":"115.7091","MEAN_MOTION":"15.06398644","TLE_LINE1":"1 46340U 20062R   22144.33726790 -.00001058  00000-0 -52119-4 0  9995","PERIAPSIS":"545.718","OBJECT_ID":"2020-062R","EPOCH":"2022-05-24T08:05:39.946560","EPHEMERIS_TYPE":"0","REV_AT_EPOCH":"9550","MEAN_MOTION_DDOT":"0.0000000000000","ECCENTRICITY":"0.00021660","REF_FRAME":"TEME","MEAN_MOTION_DOT":"-0.00001058","ARG_OF_PERICENTER":"50.4075","FILE":"3462176","COUNTRY_CODE":"US","SITE":"AFETR","TIME_SYSTEM":"UTC","BSTAR":"-0.00005211900000","SEMIMAJOR_AXIS":"6925.353","MEAN_ANOMALY":"309.7105","CENTER_NAME":"EARTH"}];
